NORAD_CAT_ID,OBJECT_NAME,OBJECT_TYPE,EPOCH,MEAN_MOTION,ECCENTRICITY,INCLINATION,RA_OF_ASC_NODE,ARG_OF_PERICENTER,MEAN_ANOMALY,BSTAR,MEAN_MOTION_DOT,MEAN_MOTION_DDOT,TLE_LINE0,TLE_LINE1,TLE_LINE2,SEMIMAJOR_AXIS,PERIOD,APOGEE,PERIGEE,DECAYED
54060.0,STARLINK-5169,PAYLOAD,2023-07-01 18:46:51,15.08835556,0.0001196,53.2188,42.5143,94.5177,265.5952,-3.1224e-05,-7.85e-06,0.0,0 STARLINK-5169,1 54060U 22136K   23182.78254232 -.00000785  00000-0 -31224-4 0  9996,2 54060  53.2188  42.5143 0001196  94.5177 265.5952 15.08835556 39500,6917.894,95.438,540.586,538.932,0.0
54060.0,STARLINK-5169,PAYLOAD,2023-07-02 15:26:52,15.08838162,0.0001029,53.2177,38.6472,89.7763,270.3347,9.1458e-05,1.168e-05,0.0,0 STARLINK-5169,1 54060U 22136K   23183.64365794  .00001168  00000-0  91458-4 0  9997,2 54060  53.2177  38.6472 0001029  89.7763 270.3347 15.08838162 39633,6917.886,95.438,540.463,539.039,0.0
54060.0,STARLINK-5169,PAYLOAD,2023-07-03 00:59:10,15.08846878,0.000101,53.2176,36.8627,88.1233,271.9875,0.00011327,1.516e-05,0.0,0 STARLINK-5169,1 54060U 22136K   23184.04109182  .00001516  00000-0  11327-3 0  9992,2 54060  53.2176  36.8627 0001010  88.1233 271.9875 15.08846878 39691,6917.859,95.437,540.423,539.026,0.0
54060.0,STARLINK-5169,PAYLOAD,2023-07-03 07:20:43,15.08841881,0.0001012,53.2178,35.6734,86.2818,273.829,5.6245e-05,6.08e-06,0.0,0 STARLINK-5169,1 54060U 22136K   23184.30605655  .00000608  00000-0  56245-4 0  9997,2 54060  53.2178  35.6734 0001012  86.2818 273.8290 15.08841881 39735,6917.875,95.437,540.44,539.04,0.0
54060.0,STARLINK-5169,PAYLOAD,2023-07-04 13:33:03,15.08839272,0.0001126,53.2182,30.0235,86.7985,273.3136,9.5077e-06,-1.36e-06,0.0,0 STARLINK-5169,1 54060U 22136K   23185.56462054 -.00000136  00000-0  95077-5 0  9994,2 54060  53.2182  30.0235 0001126  86.7985 273.3136 15.08839272 39927,6917.883,95.438,540.527,538.969,0.0
54060.0,STARLINK-5169,PAYLOAD,2023-07-04 19:54:35,15.08846971,0.0001065,53.2181,28.834,90.9265,269.1849,2.7404e-05,1.48e-06,0.0,0 STARLINK-5169,1 54060U 22136K   23185.82957466  .00000148  00000-0  27404-4 0  9999,2 54060  53.2181  28.8340 0001065  90.9265 269.1849 15.08846971 39960,6917.859,95.437,540.461,538.987,0.0
54060.0,STARLINK-5169,PAYLOAD,2023-07-05 07:02:17,15.08841322,0.000104,53.2181,26.7531,89.3519,270.7593,-5.8141e-05,-1.213e-05,0.0,0 STARLINK-5169,1 54060U 22136K   23186.29325957 -.00001213  00000-0 -58141-4 0  9993,2 54060  53.2181  26.7531 0001040  89.3519 270.7593 15.08841322 40035,6917.876,95.437,540.461,539.022,0.0
54060.0,STARLINK-5169,PAYLOAD,2023-07-06 13:14:36,15.08842693,0.0001039,53.2177,21.1042,81.461,278.65,8.3448e-05,1.041e-05,0.0,0 STARLINK-5169,1 54060U 22136K   23187.55181625  .00001041  00000-0  83448-4 0  9990,2 54060  53.2177  21.1042 0001039  81.4610 278.6500 15.08842693 40227,6917.872,95.437,540.456,539.018,0.0
54060.0,STARLINK-5169,PAYLOAD,2023-07-06 21:11:32,15.08849619,0.0001161,53.2175,19.6167,87.134,272.9785,0.00012182,1.652e-05,0.0,0 STARLINK-5169,1 54060U 22136K   23187.88301011  .00001652  00000-0  12182-3 0  9993,2 54060  53.2175  19.6167 0001161  87.1340 272.9785 15.08849619 40276,6917.851,95.437,540.519,538.913,0.0
54060.0,STARLINK-5169,PAYLOAD,2023-07-07 19:26:56,15.08838721,9.89e-05,53.2179,15.4532,87.1101,273.0004,0.00010318,1.355e-05,0.0,0 STARLINK-5169,1 54060U 22136K   23188.81037962  .00001355  00000-0  10318-3 0  9997,2 54060  53.2179  15.4532 0000989  87.1101 273.0004 15.08838721 40416,6917.884,95.438,540.433,539.065,0.0
54060.0,STARLINK-5169,PAYLOAD,2023-07-08 04:59:16,15.0883108,8.93e-05,53.2178,13.6686,97.0225,263.0868,-1.4804e-05,-5.23e-06,0.0,0 STARLINK-5169,1 54060U 22136K   23189.20782758 -.00000523  00000-0 -14804-4 0  9994,2 54060  53.2178  13.6686 0000893  97.0225 263.0868 15.08831080 40470,6917.908,95.438,540.39,539.155,0.0
54060.0,STARLINK-5169,PAYLOAD,2023-07-08 19:17:43,15.08845594,9.41e-05,53.2176,10.9923,89.9677,270.1423,3.34e-05,2.44e-06,0.0,0 STARLINK-5169,1 54060U 22136K   23189.80397913  .00000244  00000-0  33400-4 0  9996,2 54060  53.2176  10.9923 0000941  89.9677 270.1423 15.08845594 40568,6917.863,95.437,540.379,539.077,0.0
54060.0,STARLINK-5169,PAYLOAD,2023-07-09 19:08:31,15.08836226,9.95e-05,53.2174,6.5321,95.8481,264.2624,4.5686e-05,4.39e-06,0.0,0 STARLINK-5169,1 54060U 22136K   23190.79758520  .00000439  00000-0  45686-4 0  9996,2 54060  53.2174   6.5321 0000995  95.8481 264.2624 15.08836226 40713,6917.892,95.438,540.445,539.069,0.0
54060.0,STARLINK-5169,PAYLOAD,2023-07-10 20:34:41,15.08846149,0.0001074,53.2171,1.7742,96.5415,263.5699,0.0002238,3.276e-05,0.0,0 STARLINK-5169,1 54060U 22136K   23191.85742263  .00003276  00000-0  22380-3 0  9998,2 54060  53.2171   1.7742 0001074  96.5415 263.5699 15.08846149 40874,6917.862,95.437,540.47,538.984,0.0
54060.0,STARLINK-5169,PAYLOAD,2023-07-11 17:14:42,15.08842512,9.94e-05,53.2174,357.9071,90.4685,269.6421,0.0004064,6.186e-05,0.0,0 STARLINK-5169,1 54060U 22136K   23192.71854473  .00006186  00000-0  40640-3 0  9993,2 54060  53.2174 357.9071 0000994  90.4685 269.6421 15.08842512 41006,6917.873,95.437,540.425,539.05,0.0
54060.0,STARLINK-5169,PAYLOAD,2023-07-11 23:36:14,15.08855571,9.59e-05,53.2174,356.7177,89.4266,270.6836,0.00041083,6.259e-05,0.0,0 STARLINK-5169,1 54060U 22136K   23192.98349820  .00006259  00000-0  41083-3 0  9990,2 54060  53.2174 356.7177 0000959  89.4266 270.6836 15.08855571 41049,6917.833,95.437,540.361,539.034,0.0
54060.0,STARLINK-5169,PAYLOAD,2023-07-12 04:22:23,15.08841377,2.25e-05,53.2176,355.8253,118.6313,241.4702,3.2789e-05,2.34e-06,0.0,0 STARLINK-5169,1 54060U 22136K   23193.18222020  .00000234  00000-0  32789-4 0  9996,2 54060  53.2176 355.8253 0000225 118.6313 241.4702 15.08841377 41070,6917.876,95.437,539.897,539.586,0.0
54060.0,STARLINK-5169,PAYLOAD,2023-07-13 16:56:16,15.08840126,0.0001013,53.2171,348.9859,89.9103,270.2005,0.00031494,4.728e-05,0.0,0 STARLINK-5169,1 54060U 22136K   23194.70574755  .00004728  00000-0  31494-3 0  9993,2 54060  53.2171 348.9859 0001013  89.9103 270.2005 15.08840126 41306,6917.88,95.438,540.446,539.044,0.0
54060.0,STARLINK-5169,PAYLOAD,2023-07-14 10:25:31,15.08836894,0.0001214,53.2182,345.7152,90.7337,269.3794,0.00014703,2.053e-05,0.0,0 STARLINK-5169,1 54060U 22136K   23195.43439061  .00002053  00000-0  14703-3 0  9997,2 54060  53.2182 345.7152 0001214  90.7337 269.3794 15.08836894 41414,6917.89,95.438,540.595,538.915,0.0
54060.0,STARLINK-5169,PAYLOAD,2023-07-14 16:47:03,15.08848556,0.0001142,53.2175,344.5266,94.7666,265.3457,0.00034803,5.257e-05,0.0,0 STARLINK-5169,1 54060U 22136K   23195.69934675  .00005257  00000-0  34803-3 0  9998,2 54060  53.2175 344.5266 0001142  94.7666 265.3457 15.08848556 41452,6917.854,95.437,540.509,538.929,0.0
54060.0,STARLINK-5169,PAYLOAD,2023-07-15 10:16:18,15.08833315,8.37e-05,53.2182,341.2548,103.4907,256.6179,-4.6837e-05,-1.033e-05,0.0,0 STARLINK-5169,1 54060U 22136K   23196.42799073 -.00001033  00000-0 -46837-4 0  9992,2 54060  53.2182 341.2548 0000837 103.4907 256.6179 15.08833315 41566,6917.901,95.438,540.345,539.187,0.0
54060.0,STARLINK-5169,PAYLOAD,2023-07-16 16:28:37,15.08842164,0.0001027,53.2177,335.6054,89.7719,270.3391,0.00012731,1.739e-05,0.0,0 STARLINK-5169,1 54060U 22136K   23197.68655033  .00001739  00000-0  12731-3 0  9994,2 54060  53.2177 335.6054 0001027  89.7719 270.3391 15.08842164 41750,6917.874,95.437,540.449,539.028,0.0
54060.0,STARLINK-5169,PAYLOAD,2023-07-17 21:05:34,15.08856206,0.0001249,53.2182,330.2538,89.9636,270.1499,0.00049749,7.642e-05,0.0,0 STARLINK-5169,1 54060U 22136K   23198.87886929  .00007642  00000-0  49749-3 0  9994,2 54060  53.2182 330.2538 0001249  89.9636 270.1499 15.08856206 41939,6917.831,95.437,540.56,538.832,0.0
54060.0,STARLINK-5169,PAYLOAD,2023-07-18 17:45:35,15.08850429,0.0001401,53.218,326.387,97.6769,262.4382,0.00027702,4.125e-05,0.0,0 STARLINK-5169,1 54060U 22136K   23199.73998952  .00004125  00000-0  27702-3 0  9998,2 54060  53.2180 326.3870 0001401  97.6769 262.4382 15.08850429 42066,6917.849,95.437,540.683,538.744,0.0
54060.0,STARLINK-5169,PAYLOAD,2023-07-19 08:04:04,15.08824643,0.0001057,53.2174,323.7118,86.5237,273.5876,-0.00026078,-4.434e-05,0.0,0 STARLINK-5169,1 54060U 22136K   23200.33615816 -.00004434  00000-0 -26078-3 0  9992,2 54060  53.2174 323.7118 0001057  86.5237 273.5876 15.08824643 42159,6917.927,95.439,540.524,539.061,0.0
54060.0,STARLINK-5169,PAYLOAD,2023-07-19 17:36:23,15.08833316,0.000114,53.217,321.9281,98.9271,261.185,0.0009371,0.00014655,0.0,0 STARLINK-5169,1 54060U 22136K   23200.73360035  .00014655  00000-0  93710-3 0  9997,2 54060  53.2170 321.9281 0001140  98.9271 261.1850 15.08833316 42213,6917.901,95.438,540.554,538.977,0.0
54060.0,STARLINK-5169,PAYLOAD,2023-07-20 12:41:00,15.0884998,0.0001237,53.2168,318.3609,78.9524,281.1608,0.00094463,0.00014782,0.0,0 STARLINK-5169,1 54060U 22136K   23201.52848217  .00014782  00000-0  94463-3 0  9995,2 54060  53.2168 318.3609 0001237  78.9524 281.1608 15.08849980 42330,6917.85,95.437,540.571,538.859,0.0
54060.0,STARLINK-5169,PAYLOAD,2023-07-20 19:02:33,15.08864153,0.0001199,53.217,317.171,81.672,278.4408,0.0012269,0.00019305,0.0,0 STARLINK-5169,1 54060U 22136K   23201.79343838  .00019305  00000-0  12269-2 0  9992,2 54060  53.2170 317.1710 0001199  81.6720 278.4408 15.08864153 42379,6917.807,95.436,540.501,538.842,0.0
54060.0,STARLINK-5169,PAYLOAD,2023-07-24 05:42:36,15.08847075,0.0001873,53.2167,301.7129,59.7388,300.379,0.00031765,4.772e-05,0.0,0 STARLINK-5169,1 54060U 22136K   23205.23791984  .00004772  00000-0  31765-3 0  9999,2 54060  53.2167 301.7129 0001873  59.7388 300.3790 15.08847075 42411,6917.859,95.437,541.019,538.428,0.0
54060.0,STARLINK-5169,PAYLOAD,2023-07-25 11:54:56,15.08836205,0.0001365,53.2178,296.0597,88.2367,271.8781,2.2279e-05,6.7e-07,0.0,0 STARLINK-5169,1 54060U 22136K   23206.49648386  .00000067  00000-0  22279-4 0  9999,2 54060  53.2178 296.0597 0001365  88.2367 271.8781 15.08836205 42604,6917.892,95.438,540.701,538.813,0.0
